COMMENT,ORIGINATOR,NORAD_CAT_ID,OBJECT_NAME,OBJECT_TYPE,CLASSIFICATION_TYPE,INTLDES,EPOCH,EPOCH_MICROSECONDS,MEAN_MOTION,ECCENTRICITY,INCLINATION,RA_OF_ASC_NODE,ARG_OF_PERICENTER,MEAN_ANOMALY,EPHEMERIS_TYPE,ELEMENT_SET_NO,REV_AT_EPOCH,BSTAR,MEAN_MOTION_DOT,MEAN_MOTION_DDOT,FILE,TLE_LINE0,TLE_LINE1,TLE_LINE2,OBJECT_ID,OBJECT_NUMBER,SEMIMAJOR_AXIS,PERIOD,APOGEE,PERIGEE,DECAYED
"GENERATED VIA SPACETRACK.ORG API","18 SPCS","48883","SPACEBEE-100","PAYLOAD","U","21059E","2023-05-12 23:26:37","621248","15.29772603","0.0006114","97.5896","269.0008","42.2454","317.9256","0","999","10400","0.0014789","0.00042787","0","3906565","0 SPACEBEE-100","1 48883U 21059E   23132.97682432  .00042787  00000-0  14789-2 0  9999","2 48883  97.5896 269.0008 0006114  42.2454 317.9256 15.29772603104005","2021-059E","48883","6854.628","94.132","480.684","472.303","0"
"GENERATED VIA SPACETRACK.ORG API","18 SPCS","48883","SPACEBEE-100","PAYLOAD","U","21059E","2023-05-13 10:25:57","945216","15.29800562","0.0006109","97.5895","269.4684","40.6889","319.4806","0","999","10407","0.0011844","0.00034242","0","3906915","0 SPACEBEE-100","1 48883U 21059E   23133.43469844  .00034242  00000-0  11844-2 0  9997","2 48883  97.5895 269.4684 0006109  40.6889 319.4806 15.29800562104077","2021-059E","48883","6854.545","94.130","480.597","472.223","0"
"GENERATED VIA SPACETRACK.ORG API","18 SPCS","48883","SPACEBEE-100","PAYLOAD","U","21059E","2023-05-13 21:25:17","451840","15.29830404","0.0006083","97.5895","269.936","38.9059","321.2618","0","999","10414","0.0010674","0.00030866","0","3907102","0 SPACEBEE-100","1 48883U 21059E   23133.89256310  .00030866  00000-0  10674-2 0  9997","2 48883  97.5895 269.9360 0006083  38.9059 321.2618 15.29830404104141","2021-059E","48883","6854.456","94.128","480.490","472.151","0"
"GENERATED VIA SPACETRACK.ORG API","18 SPCS","48883","SPACEBEE-100","PAYLOAD","U","21059E","2023-05-13 21:25:17","451840","15.29830404","0.0006083","97.5895","269.936","38.9059","321.2618","0","999","10414","0.0010674","0.00030866","0","3907148","0 SPACEBEE-100","1 48883U 21059E   23133.89256310  .00030866  00000-0  10674-2 0  9997","2 48883  97.5895 269.9360 0006083  38.9059 321.2618 15.29830404104141","2021-059E","48883","6854.456","94.128","480.490","472.151","0"
"GENERATED VIA SPACETRACK.ORG API","18 SPCS","48883","SPACEBEE-100","PAYLOAD","U","21059E","2023-05-14 09:58:47","349120","15.29867791","0.0006037","97.5894","270.4703","36.5723","323.5928","0","999","10422","0.0012143","0.00035185","0","3907744","0 SPACEBEE-100","1 48883U 21059E   23134.41582580  .00035185  00000-0  12143-2 0  9999","2 48883  97.5894 270.4703 0006037  36.5723 323.5928 15.29867791104226","2021-059E","48883","6854.344","94.126","480.347","472.071","0"
"GENERATED VIA SPACETRACK.ORG API","18 SPCS","48883","SPACEBEE-100","PAYLOAD","U","21059E","2023-05-14 22:32:16","220832","15.29899224","0.0005984","97.5893","271.0045","34.4033","325.7593","0","999","10430","0.0010446","0.00030266","0","3907941","0 SPACEBEE-100","1 48883U 21059E   23134.93907663  .00030266  00000-0  10446-2 0  9998","2 48883  97.5893 271.0045 0005984  34.4033 325.7593 15.29899224104309","2021-059E","48883","6854.250","94.124","480.217","472.014","0"
"GENERATED VIA SPACETRACK.ORG API","18 SPCS","48883","SPACEBEE-100","PAYLOAD","U","21059E","2023-05-15 07:57:22","286016","15.29922199","0.0005975","97.5894","271.4054","32.6949","327.4659","0","999","10436","0.0010115","0.00029322","0","3908681","0 SPACEBEE-100","1 48883U 21059E   23135.33150794  .00029322  00000-0  10115-2 0  9992","2 48883  97.5894 271.4054 0005975  32.6949 327.4659 15.29922199104366","2021-059E","48883","6854.182","94.122","480.142","471.951","0"
"GENERATED VIA SPACETRACK.ORG API","18 SPCS","48883","SPACEBEE-100","PAYLOAD","U","21059E","2023-05-15 15:48:16","929792","15.29940894","0.0005963","97.5895","271.7394","31.6156","328.5441","0","999","10441","0.00098234","0.00028487","0","3908892","0 SPACEBEE-100","1 48883U 21059E   23135.65852928  .00028487  00000-0  98234-3 0  9995","2 48883  97.5895 271.7394 0005963  31.6156 328.5441 15.29940894104412","2021-059E","48883","6854.126","94.121","480.078","471.904","0"
"GENERATED VIA SPACETRACK.ORG API","18 SPCS","48883","SPACEBEE-100","PAYLOAD","U","21059E","2023-05-16 04:21:43","659648","15.29971862","0.0005948","97.5896","272.2738","29.9297","330.2282","0","999","10449","0.0010324","0.00029977","0","3909075","0 SPACEBEE-100","1 48883U 21059E   23136.18175532  .00029977  00000-0  10324-2 0  9991","2 48883  97.5896 272.2738 0005948  29.9297 330.2282 15.29971862104490","2021-059E","48883","6854.033","94.119","479.975","471.822","0"
"GENERATED VIA SPACETRACK.ORG API","18 SPCS","48883","SPACEBEE-100","PAYLOAD","U","21059E","2023-05-16 09:04:15","936672","15.2998479","0.0005938","97.5897","272.4742","29.1998","330.9573","0","999","10452","0.0010489","0.00030472","0","3909472","0 SPACEBEE-100","1 48883U 21059E   23136.37796223  .00030472  00000-0  10489-2 0  9992","2 48883  97.5897 272.4742 0005938  29.1998 330.9573 15.29984790104525","2021-059E","48883","6853.995","94.119","479.930","471.790","0"
"GENERATED VIA SPACETRACK.ORG API","18 SPCS","48883","SPACEBEE-100","PAYLOAD","U","21059E","2023-05-16 21:37:41","476800","15.30009639","0.000591","97.5899","273.0085","27.48","332.6751","0","999","10460","0.00083706","0.000243","0","3909742","0 SPACEBEE-100","1 48883U 21059E   23136.90117450  .00024300  00000-0  83706-3 0  9996","2 48883  97.5899 273.0085 0005910  27.4800 332.6751 15.30009639104605","2021-059E","48883","6853.921","94.117","479.836","471.735","0"
"GENERATED VIA SPACETRACK.ORG API","18 SPCS","48883","SPACEBEE-100","PAYLOAD","U","21059E","2023-05-17 08:36:55","662048","15.30032925","0.00059","97.59","273.4762","25.3018","334.851","0","999","10467","0.00083316","0.00024204","0","3910174","0 SPACEBEE-100","1 48883U 21059E   23137.35897757  .00024204  00000-0  83316-3 0  9991","2 48883  97.5900 273.4762 0005900  25.3018 334.8510 15.30032925104679","2021-059E","48883","6853.851","94.116","479.760","471.672","0"
"GENERATED VIA SPACETRACK.ORG API","18 SPCS","48883","SPACEBEE-100","PAYLOAD","U","21059E","2023-05-17 21:10:19","745472","15.3005864","0.0005821","97.5903","274.0103","23.2208","336.9294","0","999","10475","0.00080788","0.00023483","0","3910633","0 SPACEBEE-100","1 48883U 21059E   23137.88217298  .00023483  00000-0  80788-3 0  9993","2 48883  97.5903 274.0103 0005821  23.2208 336.9294 15.30058640104751","2021-059E","48883","6853.774","94.114","479.629","471.650","0"
"GENERATED VIA SPACETRACK.ORG API","18 SPCS","48883","SPACEBEE-100","PAYLOAD","U","21059E","2023-05-18 08:09:32","719392","15.30079085","0.0005818","97.5904","274.4782","21.2654","338.8827","0","999","10482","0.00078038","0.00022693","0","3911221","0 SPACEBEE-100","1 48883U 21059E   23138.33996203  .00022693  00000-0  78038-3 0  9991","2 48883  97.5904 274.4782 0005818  21.2654 338.8827 15.30079085104825","2021-059E","48883","6853.713","94.113","479.566","471.591","0"
"GENERATED VIA SPACETRACK.ORG API","18 SPCS","48883","SPACEBEE-100","PAYLOAD","U","21059E","2023-05-18 19:08:45","135168","15.30101318","0.0005765","97.5906","274.9456","19.57","340.576","0","999","10489","0.00079166","0.00023039","0","3911388","0 SPACEBEE-100","1 48883U 21059E   23138.79774462  .00023039  00000-0  79166-3 0  9990","2 48883  97.5906 274.9456 0005765  19.5700 340.5760 15.30101318104891","2021-059E","48883","6853.647","94.111","479.463","471.561","0"
"GENERATED VIA SPACETRACK.ORG API","18 SPCS","48883","SPACEBEE-100","PAYLOAD","U","21059E","2023-05-18 22:17:05","709984","15.30108091","0.00057","97.5906","275.079","19.5776","340.5682","0","999","10491","0.00080983","0.00023576","0","3911557","0 SPACEBEE-100","1 48883U 21059E   23138.92853831  .00023576  00000-0  80983-3 0  9998","2 48883  97.5906 275.0790 0005700  19.5776 340.5682 15.30108091104917","2021-059E","48883","6853.627","94.111","479.398","471.585","0"
"GENERATED VIA SPACETRACK.ORG API","18 SPCS","48883","SPACEBEE-100","PAYLOAD","U","21059E","2023-05-19 21:49:38","674560","15.30155036","0.0005611","97.591","276.081","16.2499","343.8919","0","999","10506","0.00083481","0.00024343","0","3912278","0 SPACEBEE-100","1 48883U 21059E   23139.90947540  .00024343  00000-0  83481-3 0  9997","2 48883  97.5910 276.0810 0005611  16.2499 343.8919 15.30155036105060","2021-059E","48883","6853.486","94.108","479.197","471.506","0"
"GENERATED VIA SPACETRACK.ORG API","18 SPCS","48883","SPACEBEE-100","PAYLOAD","U","21059E","2023-05-20 04:06:18","973152","15.30176138","0.0005717","97.591","276.3487","14.7824","345.3582","0","999","10510","0.0012165","0.00035585","0","3912522","0 SPACEBEE-100","1 48883U 21059E   23140.17105293  .00035585  00000-0  12165-2 0  9999","2 48883  97.5910 276.3487 0005717  14.7824 345.3582 15.30176138105109","2021-059E","48883","6853.423","94.107","479.206","471.370","0"
"GENERATED VIA SPACETRACK.ORG API","18 SPCS","48883","SPACEBEE-100","PAYLOAD","U","21059E","2023-05-20 08:48:48","957984","15.30191716","0.0005728","97.5911","276.5491","13.7818","346.3578","0","999","10513","0.0012689","0.00037147","0","3913175","0 SPACEBEE-100","1 48883U 21059E   23140.36723331  .00037147  00000-0  12689-2 0  9996","2 48883  97.5911 276.5491 0005728  13.7818 346.3578 15.30191716105139","2021-059E","48883","6853.377","94.106","479.167","471.316","0"
"GENERATED VIA SPACETRACK.ORG API","18 SPCS","48883","SPACEBEE-100","PAYLOAD","U","21059E","2023-05-21 08:21:16","301376","15.30265978","0.0005666","97.5913","277.5512","9.736","350.3989","0","999","10528","0.0011384","0.00033378","0","3913629","0 SPACEBEE-100","1 48883U 21059E   23141.34810534  .00033378  00000-0  11384-2 0  9990","2 48883  97.5913 277.5512 0005666   9.7360 350.3989 15.30265978105283","2021-059E","48883","6853.155","94.101","478.903","471.137","0"
